SPAWAR-CAL-R            
1 43776U 18099U   26067.65115975  .00003570  00000+0  25336-3 0  9990
2 43776  97.4524 111.5817 0019701 348.9052  11.1737 15.05212097396878
STARLINK-3961           
1 52637U 22052AR  26068.80852706 -.00000598  00000+0 -19491-4 0  9993
2 52637  53.2165 258.5882 0001286 100.0936 260.0202 15.08838259211950
